[{"OBJECT_NAME":"STARLINK-31265","OBJECT_ID":"2024-041A","EPOCH":"2026-03-09T23:10:40.556352","MEAN_MOTION":15.2757399,"ECCENTRICITY":1.185e-5,"INCLINATION":42.9999,"RA_OF_ASC_NODE":309.1532,"ARG_OF_PERICENTER":236.065,"MEAN_ANOMALY":124.019,"EPHEMERIS_TYPE":0,"CLASSIFICATION_TYPE":"U","NORAD_CAT_ID":59074,"ELEMENT_SET_NO":999,"REV_AT_EPOCH":11431,"BSTAR":0.00011886748,"MEAN_MOTION_DOT":3.01e-5,"MEAN_MOTION_DDOT":0},{"OBJECT_NAME":"AIST-2 (RS43)","OBJECT_ID":"2013-015D","EPOCH":"2026-03-09T22:52:25.813056","MEAN_MOTION":15.25079544,"ECCENTRICITY":0.00239979,"INCLINATION":64.8687,"RA_OF_ASC_NODE":221.5348,"ARG_OF_PERICENTER":248.8384,"MEAN_ANOMALY":111.0181,"EPHEMERIS_TYPE":0,"CLASSIFICATION_TYPE":"U","NORAD_CAT_ID":39133,"ELEMENT_SET_NO":999,"REV_AT_EPOCH":70876,"BSTAR":0.00037899099,"MEAN_MOTION_DOT":9.402e-5,"MEAN_MOTION_DDOT":0}]
